*******************************************************************************
JPL/HORIZONS                356 Liguria (A893 BE)          2020-Jun-22 08:54:59
Rec #:     356 (+COV) Soln.date: 2020-Jan-28_17:24:47   # obs: 2474 (1893-2020)
 
IAU76/J2000 helio. ecliptic osc. elements (au, days, deg., period=Julian yrs):
 
  EPOCH=  2455108.5 ! 2009-Oct-04.00 (TDB)         Residual RMS= .35748
   EC= .2393847112832029   QR= 2.095740200141015   TP= 2455791.943546542
   OM= 354.8497888886463   W=  78.63487728621642   IN= 8.231386959530786
   A= 2.755322212463876    MA= 212.7185229754663   ADIST= 3.414904224786737
   PER= 4.57369            N= .215499105           ANGMOM= .02772383
   DAN= 2.48042            DDN= 2.72602            L= 73.36948889999999
   B= 8.0688937            MOID= 1.12865996        TP= 2011-Aug-18.4435465420
 
Asteroid physical parameters (km, seconds, rotational period in hours):
   GM= n.a.                RAD= 72.7515            ROTPER= 31.701
   H= 8.3                  G= .150                 B-V= .733
                           ALBEDO= .065            STYP= C
 
ASTEROID comments: 
1: soln ref.= JPL#67, OCC=0
2: source=ORB
*******************************************************************************
 
 
*******************************************************************************
Ephemeris / WWW_USER Mon Jun 22 08:54:59 2020 Pasadena, USA      / Horizons
*******************************************************************************
Target body name: 356 Liguria (A893 BE)           {source: JPL#67}
Center body name: Solar System Barycenter (0)     {source: DE431}
Center-site name: BODY CENTER
*******************************************************************************
Start time      : A.D. 1969-Jun-28 00:00:00.0000 TDB
Stop  time      : A.D. 2071-May-04 00:00:00.0000 TDB
Step-size       : 7200 minutes
*******************************************************************************
Center geodetic : 0.00000000,0.00000000,0.0000000 {E-lon(deg),Lat(deg),Alt(km)}
Center cylindric: 0.00000000,0.00000000,0.0000000 {E-lon(deg),Dxy(km),Dz(km)}
Center radii    : (undefined)                                                  
Small perturbers: Yes                             {source: SB431-N16}
Output units    : AU-D
Output type     : GEOMETRIC cartesian states
Output format   : 2 (position and velocity)
Reference frame : Ecliptic of J2000.0
*******************************************************************************
Initial IAU76/J2000 heliocentric ecliptic osculating elements (au, days, deg.):
  EPOCH=  2455108.5 ! 2009-Oct-04.00 (TDB)         Residual RMS= .35748        
   EC= .2393847112832029   QR= 2.095740200141015   TP= 2455791.943546542       
   OM= 354.8497888886463   W=  78.63487728621642   IN= 8.231386959530786       
  Equivalent ICRF heliocentric equatorial cartesian coordinates (au, au/d):
   X= 2.627571512012183E-01  Y=-2.840996590450725E+00  Z=-1.746417461349033E+00
  VX= 8.189565600186870E-03 VY= 1.275099155627493E-03 VZ= 9.092456592532147E-04
Asteroid physical parameters (km, seconds, rotational period in hours):        
   GM= n.a.                RAD= 72.7515            ROTPER= 31.701              
   H= 8.3                  G= .150                 B-V= .733                   
                           ALBEDO= .065            STYP= C                     
*******************************************************************************
            JDTDB,            Calendar Date (TDB),        delta-T,                      X,                      Y,                      Z,                     VX,                     VY,                     VZ,
******************************************************************************************************************************************************************************************************************
$$SOE
2446000.500000000, A.D. 1984-Oct-27 00:00:00.0000,      54.182434, -2.161406724530612E+00,  1.202777629827241E+00,  1.481421158008391E-01, -7.640479395470335E-03, -8.481670637258531E-03, -1.309802672026761E-03,
2446005.500000000, A.D. 1984-Nov-01 00:00:00.0000,      54.182495, -2.199080577088719E+00,  1.160082542784019E+00,  1.415575954666895E-01, -7.428987432138091E-03, -8.595387117515603E-03, -1.323863511431248E-03,
2446010.500000000, A.D. 1984-Nov-06 00:00:00.0000,      54.182566, -2.235695990797200E+00,  1.116833447525289E+00,  1.349048868882318E-01, -7.217130369693318E-03, -8.703290364890908E-03, -1.337080639997612E-03,
2446015.500000000, A.D. 1984-Nov-11 00:00:00.0000,      54.182647, -2.271251531259322E+00,  1.073059161430803E+00,  1.281881683271251E-01, -7.005063331147465E-03, -8.805480311061768E-03, -1.349470220426213E-03,
2446020.500000000, A.D. 1984-Nov-16 00:00:00.0000,      54.182740, -2.305746520097837E+00,  1.028787996318109E+00,  1.214115365970015E-01, -6.792933632230592E-03, -8.902059177524764E-03, -1.361048659215287E-03,
2446025.500000000, A.D. 1984-Nov-21 00:00:00.0000,      54.182843, -2.339180996394623E+00,  9.840477480449037E-01,  1.145790059910378E-01, -6.580880974089454E-03, -8.993131059828045E-03, -1.371832548756590E-03,
2446030.500000000, A.D. 1984-Nov-26 00:00:00.0000,      54.182956, -2.371555679125916E+00,  9.388656881186511E-01,  1.076945074883608E-01, -6.369037648418567E-03, -9.078801540305752E-03, -1.381838613683738E-03,
2446035.500000000, A.D. 1984-Dec-01 00:00:00.0000,      54.183076, -2.402871930649301E+00,  8.932685571729172E-01,  1.007618882183697E-01, -6.157528752645741E-03, -9.159177328521142E-03, -1.391083661331612E-03,
2446040.500000000, A.D. 1984-Dec-06 00:00:00.0000,      54.183201, -2.433131721287144E+00,  8.472825601740307E-01,  9.378491116280774E-02, -5.946472412975174E-03, -9.234365928538832E-03, -1.399584536151459E-03,
2446045.500000000, A.D. 1984-Dec-11 00:00:00.0000,      54.183332, -2.462337595040687E+00,  8.009333632262210E-01,  8.676725507620857E-02, -5.735980013300736E-03, -9.304475332107341E-03, -1.407358077917319E-03,
2446050.500000000, A.D. 1984-Dec-16 00:00:00.0000,      54.183469, -2.490492636459881E+00,  7.542460918480460E-01,  7.971251460617937E-02, -5.526156428358354E-03, -9.369613736792060E-03, -1.414421083558344E-03,
2446055.500000000, A.D. 1984-Dec-21 00:00:00.0000,      54.183612, -2.517600438687105E+00,  7.072453305981611E-01,  7.262420059578999E-02, -5.317100259954321E-03, -9.429889287871871E-03, -1.420790272456199E-03,
2446060.500000000, A.D. 1984-Dec-26 00:00:00.0000,      54.183759, -2.543665072687184E+00,  6.599551239354351E-01,  6.550574055117651E-02, -5.108904074975957E-03, -9.485409842431304E-03, -1.426482255030446E-03,
2446065.500000000, A.D. 1984-Dec-31 00:00:00.0000,      54.183906, -2.568691057667647E+00,  6.123989782060824E-01,  5.836047925843860E-02, -4.901654643086748E-03, -9.536282754304256E-03, -1.431513504395963E-03,
2446070.500000000, A.D. 1985-Jan-05 00:00:00.0000,      54.184052, -2.592683332682478E+00,  5.645998646552082E-01,  5.119167953501948E-02, -4.695433172236435E-03, -9.582614679312363E-03, -1.435900330884831E-03,
2446075.500000000, A.D. 1985-Jan-10 00:00:00.0000,      54.184198, -2.615647229406894E+00,  5.165802233624994E-01,  4.400252310162059E-02, -4.490315541578518E-03, -9.624511400203007E-03, -1.439658859288957E-03,
2446080.500000000, A.D. 1985-Jan-15 00:00:00.0000,      54.184342, -2.637588446070306E+00,  4.683619680067114E-01,  3.679611156136982E-02, -4.286372531782045E-03, -9.662077669919923E-03, -1.442805008691725E-03,
2446085.500000000, A.D. 1985-Jan-20 00:00:00.0000,      54.184486, -2.658513022533114E+00,  4.199664913713014E-01,  2.957546747370517E-02, -4.083670052092793E-03, -9.695417071638995E-03, -1.445354474719591E-03,
2446090.500000000, A.D. 1985-Jan-25 00:00:00.0000,      54.184627, -2.678427316488666E+00,  3.714146715105602E-01,  2.234353551133334E-02, -3.882269363196329E-03, -9.724631894361201E-03, -1.447322714030475E-03,
2446095.500000000, A.D. 1985-Jan-30 00:00:00.0000,      54.184761, -2.697337980767460E+00,  3.227268785008902E-01,  1.510318368951010E-02, -3.682227295149547E-03, -9.749823023108950E-03, -1.448724930870556E-03,
2446100.500000000, A.D. 1985-Feb-04 00:00:00.0000,      54.184888, -2.715251941717658E+00,  2.739229817065100E-01,  7.857204657683385E-03, -3.483596459916038E-03, -9.771089842803341E-03, -1.449576065547811E-03,
2446105.500000000, A.D. 1985-Feb-09 00:00:00.0000,      54.185008, -2.732176378634116E+00,  2.250223574935397E-01,  6.083170442725372E-04, -3.286425458191761E-03, -9.788530154875085E-03, -1.449890784681529E-03,
2446110.500000000, A.D. 1985-Feb-14 00:00:00.0000,      54.185121, -2.748118704206763E+00,  1.760438973311833E-01, -6.640833153963332E-03, -3.090759080283045E-03, -9.802240105657741E-03, -1.449683473095798E-03,
2446115.500000000, A.D. 1985-Feb-19 00:00:00.0000,      54.185227, -2.763086545958086E+00,  1.270060162234364E-01, -1.388767114587365E-02, -2.896638500842666E-03, -9.812314125631197E-03, -1.448968227232247E-03,
2446120.500000000, A.D. 1985-Feb-24 00:00:00.0000,      54.185323, -2.777087728638602E+00,  7.792666141933324E-02, -2.112969189047632E-02, -2.704101467301031E-03, -9.818844878615262E-03, -1.447758849962536E-03,
2446125.500000000, A.D. 1985-Mar-01 00:00:00.0000,      54.185409, -2.790130257548402E+00,  2.882332135416389E-02, -2.836445861883434E-02, -2.513182481839652E-03, -9.821923220046790E-03, -1.446068846682614E-03,
2446130.500000000, A.D. 1985-Mar-06 00:00:00.0000,      54.185482, -2.802222302752068E+00, -2.028696522168962E-02, -3.558960133936051E-02, -2.323912976735372E-03, -9.821638163525647E-03, -1.443911422569914E-03,
2446135.500000000, A.D. 1985-Mar-11 00:00:00.0000,      54.185544, -2.813372184153361E+00, -6.938759996579662E-02, -4.280281533206839E-02, -2.136321482897989E-03, -9.818076854912431E-03, -1.441299480885623E-03,
